{
    "links": {
        "self": "http://www.neowsapp.com/rest/v1/neo/3843159?api_key=iIulBulltgU6a56xZRHN4H3l9WmuAYTsLGpBGhQ2"
    },
    "id": "3843159",
    "neo_reference_id": "3843159",
    "name": "(2019 NB3)",
    "designation": "2019 NB3",
    "nasa_jpl_url": "http://ssd.jpl.nasa.gov/sbdb.cgi?sstr=3843159",
    "absolute_magnitude_h": 23.2,
    "estimated_diameter": {
        "kilometers": {
            "estimated_diameter_min": 0.0608912622,
            "estimated_diameter_max": 0.1361570015
        },
        "meters": {
            "estimated_diameter_min": 60.8912622106,
            "estimated_diameter_max": 136.1570015386
        },
        "miles": {
            "estimated_diameter_min": 0.0378360645,
            "estimated_diameter_max": 0.0846040122
        },
        "feet": {
            "estimated_diameter_min": 199.7744887109,
            "estimated_diameter_max": 446.7093369279
        }
    },
    "is_potentially_hazardous_asteroid": false,
    "close_approach_data": [
        {
            "close_approach_date": "2019-07-02",
            "close_approach_date_full": "2019-Jul-02 13:50",
            "epoch_date_close_approach": 1562075400000,
            "relative_velocity": {
                "kilometers_per_second": "9.0491398851",
                "kilometers_per_hour": "32576.9035863351",
                "miles_per_hour": "20242.0210089647"
            },
            "miss_distance": {
                "astronomical": "0.1437713963",
                "lunar": "55.9270731607",
                "kilometers": "21507894.653405881",
                "miles": "13364386.0228119178"
            },
            "orbiting_body": "Earth"
        }
    ],
    "orbital_data": {
        "orbit_id": "4",
        "orbit_determination_date": "2019-07-26 07:25:07",
        "first_observation_date": "2019-07-04",
        "last_observation_date": "2019-07-25",
        "data_arc_in_days": 21,
        "observations_used": 23,
        "orbit_uncertainty": "7",
        "minimum_orbit_intersection": ".0878656",
        "jupiter_tisserand_invariant": "3.533",
        "epoch_osculation": "2459000.5",
        "eccentricity": ".4852131685993177",
        "semi_major_axis": "2.142598050738313",
        "inclination": "10.20009470071437",
        "ascending_node_longitude": "271.2668745533156",
        "orbital_period": "1145.537959943338",
        "perihelion_distance": "1.102981261504854",
        "perihelion_argument": "354.323543179464",
        "aphelion_distance": "3.182214839971771",
        "perihelion_time": "2458658.781662610199",
        "mean_anomaly": "107.3893714237223",
        "mean_motion": ".3142628289836915",
        "equinox": "J2000",
        "orbit_class": {
            "orbit_class_type": "AMO",
            "orbit_class_description": "Near-Earth asteroid orbits similar to that of 1221 Amor",
            "orbit_class_range": "1.017 AU < q (perihelion) < 1.3 AU"
        }
    },
    "is_sentry_object": false
}